[{"OBJECT_NAME":"CELESTIS-17 & SHERPA-FX1","OBJECT_ID":"2021-006CB","EPOCH":"2026-03-09T15:26:05.078112","MEAN_MOTION":15.30994801,"ECCENTRICITY":0.000663,"INCLINATION":97.2397,"RA_OF_ASC_NODE":112.1052,"ARG_OF_PERICENTER":178.1385,"MEAN_ANOMALY":181.9882,"EPHEMERIS_TYPE":0,"CLASSIFICATION_TYPE":"U","NORAD_CAT_ID":47486,"ELEMENT_SET_NO":999,"REV_AT_EPOCH":28406,"BSTAR":0.00024301,"MEAN_MOTION_DOT":7.207e-5,"MEAN_MOTION_DDOT":0},{"OBJECT_NAME":"STARLINK-36110","OBJECT_ID":"2025-286W","EPOCH":"2026-03-09T05:49:39.300672","MEAN_MOTION":15.30184781,"ECCENTRICITY":0.00011068,"INCLINATION":53.1609,"RA_OF_ASC_NODE":0.856,"ARG_OF_PERICENTER":73.5701,"MEAN_ANOMALY":286.5422,"EPHEMERIS_TYPE":0,"CLASSIFICATION_TYPE":"U","NORAD_CAT_ID":66945,"ELEMENT_SET_NO":999,"REV_AT_EPOCH":1534,"BSTAR":0.00039006813,"MEAN_MOTION_DOT":0.00011206,"MEAN_MOTION_DDOT":0}]
